TEMPEST-D               
1 43547U 98067NV  19116.92613999  .00004723  00000-0  70146-4 0  9997
2 43547  51.6381 250.9106 0005335 286.9059  73.1348 15.57290409 44351
RAINCUBE                
1 43548U 98067NW  19116.90585998  .00011460  00000-0  14391-3 0  9998
2 43548  51.6368 248.5205 0005670 297.9545  62.0874 15.60207760 44830
HALOSAT                 
1 43549U 98067NX  19116.84363365  .00011984  00000-0  15041-3 0  9998
2 43549  51.6373 248.8604 0005506 301.2957  58.7496 15.60170787 44387
ENDUROSAT ONE           
1 43551U 98067NZ  19116.78427759  .00013792  00000-0  16421-3 0  9994
2 43551  51.6377 247.7191 0006110 307.4731  52.5706 15.61405354 44808
EQUISAT                 
1 43552U 98067PA  19116.79170836  .00011259  00000-0  14016-3 0  9991
2 43552  51.6387 248.5308 0006287 306.9299  53.1118 15.60457980 44756
AEROCUBE 12A            
1 43556U 18046C   19116.82844990  .00001049  00000-0  49876-4 0  9996
2 43556  51.6424 310.2019 0007901 237.9436 122.0777 15.28542389 43475
AEROCUBE 12B            
1 43557U 18046D   19116.83781997  .00000350  00000-0  25169-4 0  9998
2 43557  51.6426 310.2618 0007836 238.5473 121.4741 15.28434675 43425
UITMSAT-1               
1 43589U 98067PD  19116.60392397  .00011903  00000-0  14806-3 0  9992
2 43589  51.6362 250.2422 0005630 313.6345  46.4181 15.60416379 40459
MAYA-1                  
1 43590U 98067PE  19116.66375339  .00012289  00000-0  15251-3 0  9990
2 43590  51.6368 249.8952 0005764 314.3563  45.6957 15.60439392 40392
BHUTAN-1                
1 43591U 98067PF  19116.59224575  .00012217  00000-0  15135-3 0  9990
2 43591  51.6377 250.1803 0005898 314.7516  45.2997 15.60491267 40381
SIRIUSSAT-1             
1 43595U 98067PG  19116.80927782  .00011466  00000-0  14626-3 0  9997
2 43595  51.6363 250.1142 0003594 273.4521  86.6061 15.59798076 39581
SIRIUSSAT-2             
1 43596U 98067PH  19116.83416667  .00012283  00000-0  15717-3 0  9996
2 43596  51.6375 250.3079 0004170 274.0743  85.9773 15.59634196 39584
TANUSHA-3               
1 43597U 98067PJ  19116.81367268  .00014451  00000-0  17562-3 0  9996
2 43597  51.6359 249.3722 0003876 288.4632  71.5940 15.60830061 39597
SURFSAT                 
1 43614U 18070B   19116.87485057  .00002214  00000-0  60571-4 0  9998
2 43614  93.0282 341.8865 0017763 141.7671 218.4846 15.37284673 34297
CP7 (DAVE)              
1 43615U 18070C   19116.81303535  .00002007  00000-0  55050-4 0  9999
2 43615  93.0283 341.8633 0017810 141.8140 218.4379 15.37222847 34282
ELFIN-B                 
1 43616U 18070D   19116.90528610  .00003163  00000-0  85175-4 0  9998
2 43616  93.0250 341.8228 0018557 145.0822 215.1653 15.37731634 34300
ELFIN-A                 
1 43617U 18070E   19116.90038785  .00002966  00000-0  79845-4 0  9995
2 43617  93.0305 341.9947 0017818 141.8602 218.3917 15.37761553 34301
CUBEBEL-1 (BSUSAT-1)    
1 43666U 18083E   19117.06619161  .00001024  00000-0  54421-4 0  9991
2 43666  97.5240 141.8953 0015705  18.9118  65.3462 15.17463655 27302
DEBRISSAT-2             
1 43680U 98067PR  19116.94260598  .00019783  00000-0  23506-3 0  9999
2 43680  51.6383 248.7590 0003612 307.8482  52.2186 15.61155783 48354
CICERO 10               
1 43690U 18088A   19116.88066805  .00000976  00000-0  43889-4 0  9994
2 43690  85.0395 353.2815 0016951  47.3296 312.9369 15.19557136 25333
IRVINE01                
1 43693U 18088D   19116.79468649  .00002445  00000-0  10751-3 0  9993
2 43693  85.0371 353.0513 0019997  33.6295 326.6211 15.21154761 25320
PROXIMA I               
1 43694U 18088E   19116.95257744  .00000877  00000-0  37209-4 0  9999
2 43694  85.0338 352.8091 0020495  24.5356 335.6855 15.21290478 25368
PROXIMA II              
1 43696U 18088G   19116.88613912  .00000885  00000-0  37562-4 0  9997
2 43696  85.0339 352.8536 0020531  24.7135 335.5085 15.21296002 25344
FACSAT-1                
1 43721U 18096C   19117.15320100  .00001500  00000-0  60764-4 0  9995
2 43721  97.4631 187.0989 0019046 150.8148 209.4158 15.26119980 22722
CENTAURI-2              
1 43722U 18096D   19116.74736072  .00001818  00000-0  72621-4 0  9996
2 43722  97.4631 186.7214 0019144 152.9776 207.2463 15.26306897 22651
INNOSAT-2               
1 43738U 18096V   19117.20976671  .00002336  00000-0  86557-4 0  9995
2 43738  97.4629 187.6336 0025388 164.2143 195.9894 15.28380198 22762
SIRION PATHFINDER-2     
1 43759U 18099B   19117.18206398 -.00000236  00000-0 -16252-4 0  9994
2 43759  97.7479 189.8017 0015433 132.2543 227.9990 14.95102739 21577
CORVUS-BC 4             
1 43767U 18099K   19117.16861517 -.00000005  00000-0  48558-5 0  9999
2 43767  97.7466 189.6376 0012942 133.9769 226.2521 14.94548232 21571
SHIELDS 1               
1 43850U 18104B   19116.62165757  .00000041  00000-0  00000+0 0  9995
2 43850  85.0270  91.5245 0015841 156.7297 203.4663 15.21029789 19958
STF-1                   
1 43852U 18104D   19116.47770443  .00000041  00000-0  00000+0 0  9994
2 43852  85.0313  91.7809 0014947 168.8480 191.3113 15.20488504 19925
ZACUBE-2                
1 43907U 18111AH  19117.21980968  .00000459  00000-0  21663-4 0  9997
2 43907  97.2936  23.8878 0021899 171.9618 188.1975 15.24123775 18453
LUME 1                  
1 43908U 18111AJ  19116.82294529  .00000918  00000-0  40316-4 0  9991
2 43908  97.2935  23.5075 0021784 173.5104 186.6420 15.24215462 18396
AOBA VELOX-IV           
1 43940U 19003J   19117.13753865  .00001575  00000-0  68303-4 0  9992
2 43940  97.2806 176.5966 0022819 256.3388 155.7710 15.23598174 15086
CATSAT-2                
1 44029U 98067PV  19116.81692347  .00009298  00000-0  14057-3 0  9995
2 44029  51.6393 255.4352 0004794 311.7103  48.3478 15.55464437 13343
DELPHINI                
1 44030U 98067PW  19116.81497145  .00009388  00000-0  14152-3 0  9992
2 44030  51.6382 255.4185 0004611 309.7479  50.3106 15.55531579 13318
UNITE                   
1 44031U 98067PX  19116.82687891  .00005994  00000-0  94706-4 0  9996
2 44031  51.6385 255.4984 0003116 308.2734  51.7976 15.55001859 13319
TECHEDSAT 8             
1 44032U 98067PY  19116.89526948  .00020814  00000-0  28474-3 0  9995
2 44032  51.6381 254.4563 0004123 304.0850  55.9751 15.57377470 13314
CATSAT-1                
1 44033U 98067PZ  19116.88107209  .00008989  00000-0  13612-3 0  9997
2 44033  51.6390 255.1142 0004614 312.4529  47.6072 15.55467796 13264
